SL-8 R/B                
1 15483U 85006B   26204.46787083  .00000234  00000+0  86315-4 0  9992
2 15483  74.0460  11.2960 0019224 253.1798 137.1467 14.37848717173545
SL-12 R/B(2)            
1 15772U 85042D   26204.32849360  .00000002  00000+0  22232-4 0  9996
2 15772  71.1077 161.1581 0037378 274.2610 194.4405 14.22012337133672
SL-14 R/B               
1 15945U 85069B   26204.45070290  .00000301  00000+0  31026-4 0  9992
2 15945  82.5251 257.2618 0020335 101.8825 258.4674 14.86539000193003
SL-16 R/B               
1 16182U 85097B   26204.51158869  .00000101  00000+0  74718-4 0  9996
2 16182  71.0008 214.6033 0005995  34.5319 128.7526 14.16616741106463
SL-14 R/B               
1 16496U 86006B   26204.25528946  .00000383  00000+0  37745-4 0  9994
2 16496  82.5286 132.1740 0076179 181.9860 178.1067 14.86972764169358
COSMOS 1743             
1 16719U 86034A   26204.31650348  .00058562  00000+0  47820-3 0  9998
2 16719  82.5265 290.2227 0005418 151.5709 208.5850 15.70344291201450
SL-14 R/B               
1 16792U 86046B   26204.58969830  .00000375  00000+0  40194-4 0  9997
2 16792  82.4840 311.7804 0024183 136.2008 224.1133 14.85695376146589
SL-14 R/B               
1 16882U 86055B   26204.43942080  .00000387  00000+0  41683-4 0  9996
2 16882  82.5211 359.0445 0017517 240.6766 145.4556 14.85744592139527
AJISAI (EGS)            
1 16908U 86061A   26204.58940675 -.00000099  00000+0 -13271-4 0  9990
2 16908  50.0106  35.4592 0011077 273.3142 132.0065 12.44516682484927
SL-14 R/B               
1 17567U 87024B   26204.57369768  .00000383  00000+0  40664-4 0  9999
2 17567  82.5305 325.0503 0018586 166.0201 194.1534 14.86236576108311
COSMOS 1833             
1 17589U 87027A   26203.99838720 -.00000020  00000+0  15076-4 0  9998
2 17589  70.9214  41.5986 0024824 356.2743   3.8189 14.13067877 29439
SL-16 R/B               
1 17590U 87027B   26204.28458926  .00000043  00000+0  45201-4 0  9996
2 17590  71.0044 350.7585 0007283 273.3415  86.6876 14.17176558 34551
SL-14 R/B               
1 17912U 87038B   26204.30184837  .00000400  00000+0  43418-4 0  9991
2 17912  82.5022 169.0549 0020821  77.4293 282.9250 14.85465824 99362
COSMOS 1844             
1 17973U 87041A   26204.45390685 -.00000131  00000+0 -42920-4 0  9998
2 17973  70.8999 107.8110 0030769 183.3034 176.7889 14.14581033 22781
SL-14 R/B               
1 18153U 87055B   26204.12005547  .00000316  00000+0  33508-4 0  9993
2 18153  82.4968 221.3532 0019051 286.9807  72.9321 14.85730443 90047
COSMOS 1867             
1 18187U 87060A   26204.53072548 -.00000064  00000+0  13602-4 0  9990
2 18187  65.0111 286.2767 0017356 281.9426  77.9713 14.31519137 39385
SL-14 R/B               
1 18749U 88001B   26204.12463187  .00000308  00000+0  32663-4 0  9996
2 18749  82.5114  67.9604 0018819 146.3528 213.8888 14.85630359 62134
COSMOS 1933             
1 18958U 88020A   26204.47040360  .00003085  00000+0  14624-3 0  9992
2 18958  82.5136 116.5018 0005958  86.9519 273.2397 15.18930155 70834
SL-3 R/B                
1 19046U 88032B   26204.55910295  .00004212  00000+0  19092-3 0  9993
2 19046  97.5280 187.5737 0027097 118.0363 242.3618 15.21079609 72755
SL-16 R/B               
1 19120U 88039B   26204.26789755 -.00000077  00000+0 -13469-4 0  9996
2 19120  71.0149 141.8661 0020232 136.1472 224.1264 14.19632307977625
COSMOS 1953             
1 19210U 88050A   26204.44234600  .00007278  00000+0  24594-3 0  9991
2 19210  82.5070  21.4564 0010769  12.2523 347.8977 15.30420566 58535
SL-8 R/B                
1 19257U 88053B   26204.37849208  .00000157  00000+0  59156-4 0  9995
2 19257  74.0451 222.3434 0020040   5.5165 122.4347 14.38980662996111
COSMOS 1975             
1 19573U 88093A   26204.33210317  .00007613  00000+0  26256-3 0  9997
2 19573  82.5204 341.3310 0012135  56.8545 303.3858 15.29746532 40130
SL-14 R/B               
1 19574U 88093B   26204.30456481  .00000285  00000+0  29984-4 0  9999
2 19574  82.5306 274.7392 0019401 312.2709 113.7369 14.85763595 21157
SL-16 R/B               
1 19650U 88102B   26204.31127406  .00000248  00000+0  14935-3 0  9996
2 19650  70.9972 226.1290 0013817 173.0554 187.0763 14.16168872946098
INTERCOSMOS 24          
1 20261U 89080A   26204.23107506  .00000261  00000+0  74692-4 0  9994
2 20261  82.6060  16.1820 1186817 338.2891  17.1616 12.59694620683866
SL-14 R/B               
1 20262U 89080C   26204.16328160  .00000105  00000+0  30012-4 0  9993
2 20262  82.5923  86.1911 1229013 235.0629 112.8949 12.50579676677084
DELTA 1 R/B             
1 20323U 89089B   26204.08481166  .00000245  00000+0  69026-4 0  9999
2 20323  97.0639  29.8989 0070410  55.5585 305.2241 14.50751265915363
ARIANE 40 R/B           
1 20443U 90005H   26204.17842607  .00000166  00000+0  66137-4 0  9995
2 20443  98.2937 260.6714 0010783 151.2148 208.9638 14.39943472912307
DELTA 2 R/B(1)          
1 20453U 90008B   26204.58212277  .00140072  00000+0  79982-3 0  9990
2 20453  35.6002 351.0604 0054865  96.0974 264.6023 15.75295240947434
