OBJECT_NAME,OBJECT_ID,EPOCH,MEAN_MOTION,ECCENTRICITY,INCLINATION,RA_OF_ASC_NODE,ARG_OF_PERICENTER,MEAN_ANOMALY,EPHEMERIS_TYPE,CLASSIFICATION_TYPE,NORAD_CAT_ID,ELEMENT_SET_NO,REV_AT_EPOCH,BSTAR,MEAN_MOTION_DOT,MEAN_MOTION_DDOT
SL-8 R/B,1985-006B,2026-07-23T11:13:44.039712,14.37848717,.00192241,74.0460,11.2960,253.1798,137.1467,0,U,15483,999,17354,.86315156E-4,.234E-5,0
SL-12 R/B(2),1985-042D,2026-07-23T07:53:01.847040,14.22012337,.00373788,71.1077,161.1581,274.2610,194.4405,0,U,15772,999,13367,.22231658E-4,.2E-7,0
SL-14 R/B,1985-069B,2026-07-23T10:49:00.730560,14.86539000,.00203351,82.5251,257.2618,101.8825,258.4674,0,U,15945,999,19300,.31025689E-4,.301E-5,0
SL-16 R/B,1985-097B,2026-07-23T12:16:41.262816,14.16616741,.00059954,71.0008,214.6033,34.5319,128.7526,0,U,16182,999,10646,.74718247E-4,.101E-5,0
SL-14 R/B,1986-006B,2026-07-23T06:07:37.009344,14.86972764,.00761793,82.5286,132.1740,181.9860,178.1067,0,U,16496,999,16935,.37745255E-4,.383E-5,0
COSMOS 1743,1986-034A,2026-07-23T07:35:45.900672,15.70344291,.00054184,82.5265,290.2227,151.5709,208.5850,0,U,16719,999,20145,.47819592E-3,.58562E-3,0
SL-14 R/B,1986-046B,2026-07-23T14:09:09.933120,14.85695376,.00241831,82.4840,311.7804,136.2008,224.1133,0,U,16792,999,14658,.40193537E-4,.375E-5,0
SL-14 R/B,1986-055B,2026-07-23T10:32:45.957120,14.85744592,.0017517,82.5211,359.0445,240.6766,145.4556,0,U,16882,999,13952,.41682665E-4,.387E-5,0
AJISAI (EGS),1986-061A,2026-07-23T14:08:44.743200,12.44516682,.00110775,50.0106,35.4592,273.3142,132.0065,0,U,16908,999,48492,-.13271337E-4,-.99E-6,0
SL-14 R/B,1987-024B,2026-07-23T13:46:07.479552,14.86236576,.00185863,82.5305,325.0503,166.0201,194.1534,0,U,17567,999,10831,.40663676E-4,.383E-5,0
COSMOS 1833,1987-027A,2026-07-22T23:57:40.654080,14.13067877,.00248247,70.9214,41.5986,356.2743,3.8189,0,U,17589,999,2943,.15075513E-4,-.2E-6,0
SL-16 R/B,1987-027B,2026-07-23T06:49:48.512064,14.17176558,.00072836,71.0044,350.7585,273.3415,86.6876,0,U,17590,999,3455,.45200808E-4,.43E-6,0
SL-14 R/B,1987-038B,2026-07-23T07:14:39.699168,14.85465824,.0020821,82.5022,169.0549,77.4293,282.9250,0,U,17912,999,9936,.43418277E-4,.4E-5,0
COSMOS 1844,1987-041A,2026-07-23T10:53:37.551840,14.14581033,.00307699,70.8999,107.8110,183.3034,176.7889,0,U,17973,999,2278,-.42920462E-4,-.131E-5,0
SL-14 R/B,1987-055B,2026-07-23T02:52:52.792608,14.85730443,.00190511,82.4968,221.3532,286.9807,72.9321,0,U,18153,999,9004,.33507615E-4,.316E-5,0
COSMOS 1867,1987-060A,2026-07-23T12:44:14.681472,14.31519137,.00173567,65.0111,286.2767,281.9426,77.9713,0,U,18187,999,3938,.13602444E-4,-.64E-6,0
SL-14 R/B,1988-001B,2026-07-23T02:59:28.193568,14.85630359,.00188193,82.5114,67.9604,146.3528,213.8888,0,U,18749,999,6213,.32663398E-4,.308E-5,0
COSMOS 1933,1988-020A,2026-07-23T11:17:22.871040,15.18930155,.00059584,82.5136,116.5018,86.9519,273.2397,0,U,18958,999,7083,.14623646E-3,.3085E-4,0
SL-3 R/B,1988-032B,2026-07-23T13:25:06.494880,15.21079609,.00270976,97.5280,187.5737,118.0363,242.3618,0,U,19046,999,7275,.19091555E-3,.4212E-4,0
SL-16 R/B,1988-039B,2026-07-23T06:25:46.348320,14.19632307,.00202328,71.0149,141.8661,136.1472,224.1264,0,U,19120,999,97762,-.13469476E-4,-.77E-6,0
COSMOS 1953,1988-050A,2026-07-23T10:36:58.694400,15.30420566,.00107692,82.5070,21.4564,12.2523,347.8977,0,U,19210,999,5853,.24593602E-3,.7278E-4,0
SL-8 R/B,1988-053B,2026-07-23T09:05:01.715712,14.38980662,.00200404,74.0451,222.3434,5.5165,122.4347,0,U,19257,999,99611,.59155866E-4,.157E-5,0
COSMOS 1975,1988-093A,2026-07-23T07:58:13.713888,15.29746532,.00121358,82.5204,341.3310,56.8545,303.3858,0,U,19573,999,4013,.26255542E-3,.7613E-4,0
SL-14 R/B,1988-093B,2026-07-23T07:18:34.399584,14.85763595,.00194014,82.5306,274.7392,312.2709,113.7369,0,U,19574,999,2115,.29983768E-4,.285E-5,0
SL-16 R/B,1988-102B,2026-07-23T07:28:14.078784,14.16168872,.00138173,70.9972,226.1290,173.0554,187.0763,0,U,19650,999,94609,.14934774E-3,.248E-5,0
INTERCOSMOS 24,1989-080A,2026-07-23T05:32:44.885184,12.59694620,.1186817,82.6060,16.1820,338.2891,17.1616,0,U,20261,999,68386,.74691829E-4,.261E-5,0
SL-14 R/B,1989-080C,2026-07-23T03:55:07.530240,12.50579676,.12290139,82.5923,86.1911,235.0629,112.8949,0,U,20262,999,67708,.30011598E-4,.105E-5,0
DELTA 1 R/B,1989-089B,2026-07-23T02:02:07.727424,14.50751265,.00704106,97.0639,29.8989,55.5585,305.2241,0,U,20323,999,91536,.69025699E-4,.245E-5,0
ARIANE 40 R/B,1990-005H,2026-07-23T04:16:56.012448,14.39943472,.00107832,98.2937,260.6714,151.2148,208.9638,0,U,20443,999,91230,.66137407E-4,.166E-5,0
DELTA 2 R/B(1),1990-008B,2026-07-23T13:58:15.407328,15.75295240,.00548655,35.6002,351.0604,96.0974,264.6023,0,U,20453,999,94743,.79982436E-3,.140072E-2,0
